{"type": "FeatureCollection", "features": [ {"type": "Feature", "properties": {"norad_id": 43010, "name": "FENGYUN 3D", "group": "weather", "lat": -44.549471175339896, "lon": -48.583685918281724, "alt_km": 833.054360716782, "timestamp": "2025-12-02T07:10:08.751893+00:00", "meta": {"OBJECT_NAME": "FENGYUN 3D", "OBJECT_ID": "2017-072A", "EPOCH": "2025-12-01T21:13:59.032992", "MEAN_MOTION": 14.19678567, "ECCENTRICITY": 5.46e-05, "INCLINATION": 98.9878, "RA_OF_ASC_NODE": 302.0332, "ARG_OF_PERICENTER": 231.6248, "MEAN_ANOMALY": 128.4878, "EPHEMERIS_TYPE": 0, "CLASSIFICATION_TYPE": "U", "NORAD_CAT_ID": 43010, "ELEMENT_SET_NO": 999, "REV_AT_EPOCH": 41699, "BSTAR": 8.6725e-05, "MEAN_MOTION_DOT": 1.37e-06, "MEAN_MOTION_DDOT": 0}, "tle": {"line1": "1 43010U 17072A   25335.88471103  .00000137  00000+0  86725-4 0  9997", "line2": "2 43010  98.9878 302.0332 0000546 231.6248 128.4878 14.19678567416994"}}, "geometry": {"type": "Point", "coordinates": [-48.583685918281724, -44.549471175339896]}}, {"type": "Feature", "properties": {"norad_id": 43013, "name": "NOAA 20 (JPSS-1)", "group": "weather", "lat": 65.14740974061313, "lon": 112.15089629126848, "alt_km": 819.1507840072363, "timestamp": "2025-12-02T07:10:08.751905+00:00", "meta": {"OBJECT_NAME": "NOAA 20 (JPSS-1)", "OBJECT_ID": "2017-073A", "EPOCH": "2025-12-01T20:29:14.534880", "MEAN_MOTION": 14.19520949, "ECCENTRICITY": 0.0002032, "INCLINATION": 98.7582, "RA_OF_ASC_NODE": 272.2703, "ARG_OF_PERICENTER": 102.8001, "MEAN_ANOMALY": 257.3402, "EPHEMERIS_TYPE": 0, "CLASSIFICATION_TYPE": "U", "NORAD_CAT_ID": 43013, "ELEMENT_SET_NO": 999, "REV_AT_EPOCH": 41647, "BSTAR": 7.5416e-05, "MEAN_MOTION_DOT": 1.15e-06, "MEAN_MOTION_DDOT": 0}, "tle": {"line1": "1 43013U 17073A   25335.85364045  .00000115  00000+0  75416-4 0  9995", "line2": "2 43013  98.7582 272.2703 0002032 102.8001 257.3402 14.19520949416473"}}, "geometry": {"type": "Point", "coordinates": [112.15089629126848, 65.14740974061313]}}, {"type": "Feature", "properties": {"norad_id": 43226, "name": "GOES 17", "group": "weather", "lat": 0.017136525148998036, "lon": 89.41037757945683, "alt_km": 35801.115512152195, "timestamp": "2025-12-02T07:10:08.751918+00:00", "meta": {"OBJECT_NAME": "GOES 17", "OBJECT_ID": "2018-022A", "EPOCH": "2025-12-01T18:31:17.225760", "MEAN_MOTION": 1.00270008, "ECCENTRICITY": 0.000343, "INCLINATION": 0.4287, "RA_OF_ASC_NODE": 89.3744, "ARG_OF_PERICENTER": 180.8338, "MEAN_ANOMALY": 348.9993, "EPHEMERIS_TYPE": 0, "CLASSIFICATION_TYPE": "U", "NORAD_CAT_ID": 43226, "ELEMENT_SET_NO": 999, "REV_AT_EPOCH": 2844, "BSTAR": 0, "MEAN_MOTION_DOT": -1.61e-06, "MEAN_MOTION_DDOT": 0}, "tle": {"line1": "1 43226U 18022A   25335.77172715 -.00000161  00000+0  00000+0 0  9992", "line2": "2 43226   0.4287  89.3744 0003430 180.8338 348.9993  1.00270008 28447"}}, "geometry": {"type": "Point", "coordinates": [89.41037757945683, 0.017136525148998036]}}, {"type": "Feature", "properties": {"norad_id": 43491, "name": "FENGYUN 2H", "group": "weather", "lat": 0.11810028452899675, "lon": -101.71199744242648, "alt_km": 35774.546933383, "timestamp": "2025-12-02T07:10:08.751930+00:00", "meta": {"OBJECT_NAME": "FENGYUN 2H", "OBJECT_ID": "2018-050A", "EPOCH": "2025-12-01T19:19:42.589056", "MEAN_MOTION": 1.00271612, "ECCENTRICITY": 0.000284, "INCLINATION": 2.5201, "RA_OF_ASC_NODE": 81.4514, "ARG_OF_PERICENTER": 161.0543, "MEAN_ANOMALY": 197.6999, "EPHEMERIS_TYPE": 0, "CLASSIFICATION_TYPE": "U", "NORAD_CAT_ID": 43491, "ELEMENT_SET_NO": 999, "REV_AT_EPOCH": 2745, "BSTAR": 0, "MEAN_MOTION_DOT": -1.09e-06, "MEAN_MOTION_DDOT": 0}, "tle": {"line1": "1 43491U 18050A   25335.80535404 -.00000109  00000+0  00000+0 0  9991", "line2": "2 43491   2.5201  81.4514 0002840 161.0543 197.6999  1.00271612 27458"}}, "geometry": {"type": "Point", "coordinates": [-101.71199744242648, 0.11810028452899675]}}, {"type": "Feature", "properties": {"norad_id": 43689, "name": "METOP-C", "group": "weather", "lat": -0.1932431598119056, "lon": -145.80211796866553, "alt_km": 823.8719347024908, "timestamp": "2025-12-02T07:10:08.751943+00:00", "meta": {"OBJECT_NAME": "METOP-C", "OBJECT_ID": "2018-087A", "EPOCH": "2025-12-01T18:29:58.783200", "MEAN_MOTION": 14.21505019, "ECCENTRICITY": 0.0001765, "INCLINATION": 98.6946, "RA_OF_ASC_NODE": 33.7076, "ARG_OF_PERICENTER": 60.1439, "MEAN_ANOMALY": 299.9914, "EPHEMERIS_TYPE": 0, "CLASSIFICATION_TYPE": "U", "NORAD_CAT_ID": 43689, "ELEMENT_SET_NO": 999, "REV_AT_EPOCH": 36678, "BSTAR": 9.2328e-05, "MEAN_MOTION_DOT": 1.58e-06, "MEAN_MOTION_DDOT": 0}, "tle": {"line1": "1 43689U 18087A   25335.77081925  .00000158  00000+0  92328-4 0  9992", "line2": "2 43689  98.6946  33.7076 0001765  60.1439 299.9914 14.21505019366783"}}, "geometry": {"type": "Point", "coordinates": [-145.80211796866553, -0.1932431598119056]}}, {"type": "Feature", "properties": {"norad_id": 43823, "name": "GEO-KOMPSAT-2A", "group": "weather", "lat": -0.00951622501048487, "lon": -52.81369323221425, "alt_km": 35787.523709115034, "timestamp": "2025-12-02T07:10:08.751954+00:00", "meta": {"OBJECT_NAME": "GEO-KOMPSAT-2A", "OBJECT_ID": "2018-100A", "EPOCH": "2025-12-01T19:33:41.251392", "MEAN_MOTION": 1.00270851, "ECCENTRICITY": 5.87e-05, "INCLINATION": 0.0616, "RA_OF_ASC_NODE": 123.5731, "ARG_OF_PERICENTER": 66.706, "MEAN_ANOMALY": 302.3403, "EPHEMERIS_TYPE": 0, "CLASSIFICATION_TYPE": "U", "NORAD_CAT_ID": 43823, "ELEMENT_SET_NO": 999, "REV_AT_EPOCH": 2565, "BSTAR": 0, "MEAN_MOTION_DOT": -3.22e-06, "MEAN_MOTION_DDOT": 0}, "tle": {"line1": "1 43823U 18100A   25335.81506078 -.00000322  00000+0  00000+0 0  9999", "line2": "2 43823   0.0616 123.5731 0000587  66.7060 302.3403  1.00270851 25659"}}, "geometry": {"type": "Point", "coordinates": [-52.81369323221425, -0.00951622501048487]}}, {"type": "Feature", "properties": {"norad_id": 44387, "name": "METEOR-M2 2", "group": "weather", "lat": 30.095308114525114, "lon": 141.10849073751902, "alt_km": 808.7593246404531, "timestamp": "2025-12-02T07:10:08.751965+00:00", "meta": {"OBJECT_NAME": "METEOR-M2 2", "OBJECT_ID": "2019-038A", "EPOCH": "2025-12-01T20:21:14.040288", "MEAN_MOTION": 14.24283765, "ECCENTRICITY": 7.98e-05, "INCLINATION": 98.8961, "RA_OF_ASC_NODE": 315.4442, "ARG_OF_PERICENTER": 171.6466, "MEAN_ANOMALY": 188.4726, "EPHEMERIS_TYPE": 0, "CLASSIFICATION_TYPE": "U", "NORAD_CAT_ID": 44387, "ELEMENT_SET_NO": 999, "REV_AT_EPOCH": 33320, "BSTAR": 0.00010235, "MEAN_MOTION_DOT": 1.9e-06, "MEAN_MOTION_DDOT": 0}, "tle": {"line1": "1 44387U 19038A   25335.84807917  .00000190  00000+0  10235-3 0  9992", "line2": "2 44387  98.8961 315.4442 0000798 171.6466 188.4726 14.24283765333206"}}, "geometry": {"type": "Point", "coordinates": [141.10849073751902, 30.095308114525114]}}, {"type": "Feature", "properties": {"norad_id": 47719, "name": "ARKTIKA-M 1", "group": "weather", "lat": 62.24579380905277, "lon": 159.30161361054957, "alt_km": 38517.53658066752, "timestamp": "2025-12-02T07:10:08.751978+00:00", "meta": {"OBJECT_NAME": "ARKTIKA-M 1", "OBJECT_ID": "2021-016A", "EPOCH": "2025-12-01T02:41:41.634816", "MEAN_MOTION": 2.00613156, "ECCENTRICITY": 0.7197471, "INCLINATION": 63.1756, "RA_OF_ASC_NODE": 85.6045, "ARG_OF_PERICENTER": 269.084, "MEAN_ANOMALY": 15.7076, "EPHEMERIS_TYPE": 0, "CLASSIFICATION_TYPE": "U", "NORAD_CAT_ID": 47719, "ELEMENT_SET_NO": 999, "REV_AT_EPOCH": 3481, "BSTAR": 0, "MEAN_MOTION_DOT": -1.2e-07, "MEAN_MOTION_DDOT": 0}, "tle": {"line1": "1 47719U 21016A   25335.11228744 -.00000012  00000+0  00000+0 0  9997", "line2": "2 47719  63.1756  85.6045 7197471 269.0840  15.7076  2.00613156 34817"}}, "geometry": {"type": "Point", "coordinates": [159.30161361054957, 62.24579380905277]}}, {"type": "Feature", "properties": {"norad_id": 49008, "name": "FENGYUN 3E", "group": "weather", "lat": -80.24509847583246, "lon": 40.52834837560299, "alt_km": 832.7694483019359, "timestamp": "2025-12-02T07:10:08.751992+00:00", "meta": {"OBJECT_NAME": "FENGYUN 3E", "OBJECT_ID": "2021-062A", "EPOCH": "2025-12-01T21:25:28.625952", "MEAN_MOTION": 14.19877598, "ECCENTRICITY": 8.25e-05, "INCLINATION": 98.7476, "RA_OF_ASC_NODE": 336.5425, "ARG_OF_PERICENTER": 332.6664, "MEAN_ANOMALY": 27.4469, "EPHEMERIS_TYPE": 0, "CLASSIFICATION_TYPE": "U", "NORAD_CAT_ID": 49008, "ELEMENT_SET_NO": 999, "REV_AT_EPOCH": 22858, "BSTAR": 4.1333e-05, "MEAN_MOTION_DOT": 4.4e-07, "MEAN_MOTION_DDOT": 0}, "tle": {"line1": "1 49008U 21062A   25335.89269243  .00000044  00000+0  41333-4 0  9998", "line2": "2 49008  98.7476 336.5425 0000825 332.6664  27.4469 14.19877598228583"}}, "geometry": {"type": "Point", "coordinates": [40.52834837560299, -80.24509847583246]}}, {"type": "Feature", "properties": {"norad_id": 51850, "name": "GOES 18", "group": "weather", "lat": -0.00359488247050276, "lon": 41.92276556973266, "alt_km": 35787.62160078462, "timestamp": "2025-12-02T07:10:08.752004+00:00", "meta": {"OBJECT_NAME": "GOES 18", "OBJECT_ID": "2022-021A", "EPOCH": "2025-12-01T18:17:56.004864", "MEAN_MOTION": 1.00270199, "ECCENTRICITY": 6.48e-05, "INCLINATION": 0.0088, "RA_OF_ASC_NODE": 74.7994, "ARG_OF_PERICENTER": 212.5586, "MEAN_ANOMALY": 281.0078, "EPHEMERIS_TYPE": 0, "CLASSIFICATION_TYPE": "U", "NORAD_CAT_ID": 51850, "ELEMENT_SET_NO": 999, "REV_AT_EPOCH": 461, "BSTAR": 0, "MEAN_MOTION_DOT": 1.18e-06, "MEAN_MOTION_DDOT": 0}, "tle": {"line1": "1 51850U 22021A   25335.76245376  .00000118  00000+0  00000+0 0  9992", "line2": "2 51850   0.0088  74.7994 0000648 212.5586 281.0078  1.00270199  4610"}}, "geometry": {"type": "Point", "coordinates": [41.92276556973266, -0.00359488247050276]}}]}